satname,norad_id,inclination_deg,eccentricity,mean_motion_rev_per_day,perigee_km,apogee_km,l1,l2
STARLINK-1560,46036,53.1388,0.000216,15.25580263,487.5602569029825,490.5268789083175,1 46036U 20055K   26072.00002314  .01892536  00000+0  66740-1 0  9995,2 46036  53.1388 111.0793 0002160  97.7280   6.4434 15.25580263  5747
STARLINK-1567,46038,53.0874,0.0001041,15.23858747,493.4991237690083,494.9299473587125,1 46038U 20055M   26072.00002314  .02062485  00000+0  75855-1 0  9997,2 46038  53.0874 111.1916 0001041  48.4358 287.7240 15.23858747  5654
STARLINK-1569,46039,53.1207,0.0001126,15.22144163,498.59996008785765,500.14877564790095,1 46039U 20055N   26072.00002314  .00122155  00000+0  51870-2 0  9999,2 46039  53.1207 111.1379 0001126 106.9300 225.7128 15.22144163  5588
STARLINK-1582,46043,53.126,0.000157,15.23159041,495.23975699997936,497.3983361986102,1 46043U 20055S   26072.00002314  .01439652  00000+0  55117-1 0  9995,2 46043  53.1260 111.2170 0001570 110.0386 138.5925 15.23159041  5796
STARLINK-1591,46045,53.1186,0.0001886,15.21720724,499.3528086971519,501.94748720935877,1 46045U 20055U   26072.00002314  .00114576  00000+0  49321-2 0  9992,2 46045  53.1186 111.0799 0001886  82.5641 101.3886 15.21720724  5599
STARLINK-1524,46047,53.1588,0.0001657,15.30160402,474.197684429997,476.468924488895,1 46047U 20055W   26071.39767041  .00027754  00000+0  94685-3 0  9995,2 46047  53.1588 101.2614 0001657  93.6814 266.4376 15.30160402309488
STARLINK-1527,46048,53.1606,0.0001421,15.3018938,474.27291317345407,476.2206448434481,1 46048U 20055X   26071.46931820  .00001177  00000+0  51878-4 0  9991,2 46048  53.1606 101.0269 0001421  92.1579 267.9584 15.30189380309477
STARLINK-1540,46051,53.1626,0.0001063,15.30198127,474.4921499459615,475.9491737848739,1 46051U 20055AA  26071.49247190  .00001113  00000+0  49708-4 0  9997,2 46051  53.1626 100.8247 0001063 100.3185 259.7935 15.30198127309516
STARLINK-1541,46052,53.1613,0.0001295,15.30189168,474.3598987282776,476.13492529098767,1 46052U 20055AB  26071.48193719 -.00000661  00000+0 -10202-4 0  9990,2 46052  53.1613 100.9158 0001295  91.3293 268.7857 15.30189168309474
STARLINK-1543,46053,53.1602,0.0001114,15.30194458,474.46815161839277,475.9950821462344,1 46053U 20055AC  26071.48826012  .00003016  00000+0  11394-3 0  9997,2 46053  53.1602 100.9139 0001114  93.8609 266.2519 15.30194458309500
STARLINK-1548,46054,53.1615,0.0001453,15.30193947,474.2373479641128,476.2289373275662,1 46054U 20055AD  26071.36500642  .00002070  00000+0  82005-4 0  9990,2 46054  53.1615 101.4908 0001453  90.4310 269.6857 15.30193947309484
STARLINK-1554,46055,53.1608,0.0001282,15.30193375,474.35624827528864,476.11345281776903,1 46055U 20055AE  26071.36291745  .00002690  00000+0  10293-3 0  9999,2 46055  53.1608 101.6180 0001282  99.7214 260.3932 15.30193375309483
STARLINK-1564,46058,53.1621,0.0001414,15.30192537,474.26828554920576,476.20641981614426,1 46058U 20055AH  26071.36086597 -.00000218  00000+0  47574-5 0  9998,2 46058  53.1621 101.9661 0001414  82.3003 277.8159 15.30192537309471
STARLINK-1570,46059,53.1593,0.0001551,15.30203146,474.142722597433,476.268629495542,1 46059U 20055AJ  26071.45560502  .00005975  00000+0  21368-3 0  9997,2 46059  53.1593 101.0623 0001551  78.4089 281.7086 15.30203146309451
STARLINK-1572,46060,53.1593,0.0001197,15.29360422,476.9023982933304,478.5436911880406,1 46060U 20055AK  26071.40582522  .00001003  00000+0  47092-4 0  9991,2 46060  53.1593 101.4874 0001197  95.6986 264.4151 15.29360422309458
STARLINK-1573,46061,53.1595,0.0001403,15.30192778,474.2751047736374,476.19816141508363,1 46061U 20055AL  26071.37447682  .00000941  00000+0  43895-4 0  9992,2 46061  53.1595 101.3942 0001403 118.8665 241.2477 15.30192778309484
STARLINK-1577,46063,53.1615,0.0001449,15.30191131,474.2484962305725,476.2346053345891,1 46063U 20055AN  26071.40081266  .00001718  00000+0  70147-4 0  9993,2 46063  53.1615 101.2435 0001449  68.6410 291.4745 15.30191131309482
STARLINK-1583,46064,53.162,0.0001447,15.30196674,474.23331879235684,476.216681755237,1 46064U 20055AP  26071.50196072 -.00000874  00000+0 -17378-4 0  9998,2 46064  53.1620 100.8042 0001447 108.7753 251.3405 15.30196674309498
STARLINK-1525,46066,53.0551,0.0001836,15.15829005,517.1967031363365,519.7291346265483,1 46066U 20055AR  26072.00002314  .00074280  00000+0  38165-2 0  9996,2 46066  53.0551  81.3437 0001836  83.3138   5.6728 15.15829005  5798
STARLINK-1536,46070,53.0563,0.0001519,15.06393234,546.1803312355278,548.2842584272976,1 46070U 20055AV  26071.20493614  .00000491  00000+0  51865-4 0  9996,2 46070  53.0563  85.3262 0001519 105.3504 254.7653 15.06393234309696
STARLINK-1542,46073,53.0555,0.0001312,15.06392816,546.3249673315295,548.1421845706591,1 46073U 20055AY  26071.33025927  .00000479  00000+0  51071-4 0  9996,2 46073  53.0555  84.7650 0001312  85.6179 274.4960 15.06392816309700
STARLINK-1549,46074,53.0549,0.000103,15.06377971,546.5657566176296,547.9923923289707,1 46074U 20055AZ  26071.31553541 -.00000202  00000+0  53205-5 0  9990,2 46074  53.0549  84.8311 0001030  91.6595 268.4512 15.06377971309694
STARLINK-1551,46075,53.0555,0.0001341,15.06398733,546.2867513511646,548.1441308758704,1 46075U 20055BA  26072.00478564  .00000429  00000+0  47686-4 0  9994,2 46075  53.0555  81.7365 0001341  90.3609 269.7534 15.06398733309804
STARLINK-1552,46076,53.0549,0.0001399,15.0638514,546.2882394375592,548.2259647073188,1 46076U 20055BB  26071.30078175  .00002847  00000+0  20999-3 0  9994,2 46076  53.0549  84.9026 0001399  85.9634 274.1515 15.06385140309681
STARLINK-1559,46077,53.027,0.0004369,15.29865222,473.2201721421998,479.20950477864517,1 46077U 20055BC  26071.36973773  .00057076  00000+0  19439-2 0  9999,2 46077  53.0270  61.4651 0004369  48.8614 311.2761 15.29865222309992
STARLINK-1566,46079,53.0558,0.000135,15.06393666,546.2960461279772,548.1658954800942,1 46079U 20055BE  26071.45189495 -.00003202  00000+0 -19621-3 0  9999,2 46079  53.0558  84.2206 0001350  94.6272 265.4871 15.06393666309724
STARLINK-1568,46080,53.0628,0.0006342,15.46821288,421.716625520824,430.3470332640245,1 46080U 20055BF  26071.85388559  .00039011  00000+0  76919-3 0  9995,2 46080  53.0628  17.8706 0006342 125.9915 234.1681 15.46821288310688
STARLINK-1578,46082,53.0566,0.0001402,15.06394346,546.2579503908391,548.1998229854662,1 46082U 20055BH  26071.40029023  .00000458  00000+0  49661-4 0  9994,2 46082  53.0566  84.4511 0001402  96.4809 263.6340 15.06394346309718
